{
    "links": {
        "self": "http://www.neowsapp.com/rest/v1/neo/3557087?api_key=iIulBulltgU6a56xZRHN4H3l9WmuAYTsLGpBGhQ2"
    },
    "id": "3557087",
    "neo_reference_id": "3557087",
    "name": "(2011 BM59)",
    "designation": "2011 BM59",
    "nasa_jpl_url": "http://ssd.jpl.nasa.gov/sbdb.cgi?sstr=3557087",
    "absolute_magnitude_h": 25.4,
    "estimated_diameter": {
        "kilometers": {
            "estimated_diameter_min": 0.022108281,
            "estimated_diameter_max": 0.0494356193
        },
        "meters": {
            "estimated_diameter_min": 22.1082810359,
            "estimated_diameter_max": 49.435619262
        },
        "miles": {
            "estimated_diameter_min": 0.0137374447,
            "estimated_diameter_max": 0.0307178602
        },
        "feet": {
            "estimated_diameter_min": 72.5337327539,
            "estimated_diameter_max": 162.1903570994
        }
    },
    "is_potentially_hazardous_asteroid": false,
    "close_approach_data": [
        {
            "close_approach_date": "1916-07-18",
            "close_approach_date_full": "1916-Jul-18 13:36",
            "epoch_date_close_approach": -1686911040000,
            "relative_velocity": {
                "kilometers_per_second": "25.6034213976",
                "kilometers_per_hour": "92172.3170315058",
                "miles_per_hour": "57272.293324382"
            },
            "miss_distance": {
                "astronomical": "0.4239579846",
                "lunar": "164.9196560094",
                "kilometers": "63423211.465652802",
                "miles": "39409356.1686285876"
            },
            "orbiting_body": "Earth"
        },
        {
            "close_approach_date": "2011-01-12",
            "close_approach_date_full": "2011-Jan-12 10:18",
            "epoch_date_close_approach": 1294827480000,
            "relative_velocity": {
                "kilometers_per_second": "12.5004570373",
                "kilometers_per_hour": "45001.645334217",
                "miles_per_hour": "27962.2723466972"
            },
            "miss_distance": {
                "astronomical": "0.080039039",
                "lunar": "31.135186171",
                "kilometers": "11973669.75124693",
                "miles": "7440093.381710434"
            },
            "orbiting_body": "Earth"
        }
    ],
    "orbital_data": {
        "orbit_id": "6",
        "orbit_determination_date": "2017-04-06 08:54:42",
        "first_observation_date": "2011-01-30",
        "last_observation_date": "2011-02-05",
        "data_arc_in_days": 6,
        "observations_used": 9,
        "orbit_uncertainty": "9",
        "minimum_orbit_intersection": ".0182544",
        "jupiter_tisserand_invariant": "4.589",
        "epoch_osculation": "2455592.5",
        "eccentricity": ".4608483230621947",
        "semi_major_axis": "1.414096199626938",
        "inclination": "10.79324883252604",
        "ascending_node_longitude": "313.2415079624939",
        "orbital_period": "614.2099668871906",
        "perihelion_distance": ".7624123373802411",
        "perihelion_argument": "83.83538244046302",
        "aphelion_distance": "2.065780061873635",
        "perihelion_time": "2455521.338283664437",
        "mean_anomaly": "41.70921877193809",
        "mean_motion": ".5861187857704037",
        "equinox": "J2000",
        "orbit_class": {
            "orbit_class_type": "APO",
            "orbit_class_description": "Near-Earth asteroid orbits which cross the Earth’s orbit similar to that of 1862 Apollo",
            "orbit_class_range": "a (semi-major axis) > 1.0 AU; q (perihelion) < 1.017 AU"
        }
    },
    "is_sentry_object": false
}